{"type":"FeatureCollection","features":[{"type":"Feature","properties":{"NUTS_ID":"ES43","NAME_LATN":"Extremadura"},"geometry":{"type":"MultiPolygon","coordinates":[[[[-5.9797,40.2983],[-5.925,40.2883],[-5.811,40.3459],[-5.7842,40.292],[-5.7376,40.2942],[-5.5343,40.1988],[-5.3689,40.2547],[-5.336,40.1159],[-5.3697,40.082],[-5.3974,39.8873],[-5.3014,39.8694],[-5.295,39.7617],[-5.1693,39.7892],[-5.1447,39.7011],[-5.1917,39.5897],[-4.9526,39.395],[-4.9408,39.3952],[-4.8679,39.3746],[-4.7554,39.4158],[-4.6877,39.4503],[-4.6834,39.3987],[-4.7512,39.3066],[-4.6753,39.1785],[-4.8068,39.1919],[-4.8654,39.1161],[-4.8446,39.0485],[-4.9541,39.0489],[-4.9284,38.9732],[-4.8468,38.9368],[-4.8411,38.9077],[-4.9245,38.8739],[-4.9834,38.7541],[-5.047,38.7291],[-5.1633,38.706],[-5.5639,38.4302],[-5.5692,38.3364],[-5.5246,38.2222],[-5.5848,38.1318],[-5.7132,38.0871],[-5.7357,38.1122],[-5.6923,38.1603],[-5.7064,38.1861],[-5.8484,38.1636],[-5.9141,38.1116],[-5.9584,38.002],[-6.0962,37.9854],[-6.1803,37.9411],[-6.3112,37.9857],[-6.3918,38.0525],[-6.4776,38.0175],[-6.5706,38.0293],[-6.6202,38.0896],[-6.7526,38.0981],[-6.8067,38.1259],[-6.8065,38.1735],[-6.9317,38.2084],[-7.108,38.1881],[-7.3077,38.4456],[-7.309,38.521],[-7.2551,38.6158],[-7.2553,38.7114],[-7.2031,38.751],[-7.0493,38.869],[-6.96,39.0307],[-7.0114,39.1009],[-7.1349,39.113],[-7.1481,39.1698],[-7.2372,39.2136],[-7.2315,39.2784],[-7.3127,39.3539],[-7.3089,39.4593],[-7.497,39.5937],[-7.5429,39.6628],[-7.344,39.6435],[-7.0176,39.6789],[-6.9747,39.8131],[-6.9105,39.8733],[-6.8734,40.0076],[-7.0187,40.1587],[-7.014,40.2131],[-6.9513,40.2574],[-6.8651,40.2707],[-6.7717,40.2422],[-6.5929,40.2726],[-6.5351,40.3407],[-6.2216,40.4825],[-5.9797,40.2983]]]]}},{"type":"Feature","properties":{"NUTS_ID":"ES51","NAME_LATN":"Cataluña"},"geometry":{"type":"MultiPolygon","coordinates":[[[[1.0761,42.7783],[1.1648,42.715],[1.2533,42.7158],[1.3485,42.7139],[1.4426,42.6037],[1.4473,42.4614],[1.4645,42.4398],[1.5386,42.4367],[1.607,42.4614],[1.7258,42.5044],[1.731,42.4924],[1.917,42.4509],[1.9661,42.4082],[2.0191,42.362],[2.1665,42.404],[2.2678,42.4253],[2.5569,42.3431],[2.6322,42.3525],[2.7062,42.4093],[2.8751,42.4615],[3.0135,42.4669],[3.175,42.4352],[3.1742,42.4082],[3.1795,42.3594],[3.302,42.3127],[3.2662,42.261],[3.1617,42.2523],[3.1206,42.207],[3.1268,42.1415],[3.202,42.0534],[3.2136,41.9502],[3.1999,41.9066],[2.7785,41.6488],[2.2808,41.4631],[2.1665,41.352],[2.1007,41.288],[1.6453,41.1956],[0.9757,41.0306],[0.9282,40.9895],[0.7117,40.8021],[0.8686,40.7237],[0.8637,40.6963],[0.7593,40.6427],[0.6022,40.6172],[0.5152,40.5229],[0.3956,40.5998],[0.2938,40.6264],[0.2778,40.6877],[0.1708,40.7328],[0.2674,40.8236],[0.2538,40.8978],[0.2833,40.9792],[0.2204,41.0714],[0.2228,41.1274],[0.2967,41.1706],[0.3857,41.2788],[0.3359,41.4074],[0.3555,41.4806],[0.44,41.5523],[0.4218,41.5952],[0.358,41.6071],[0.3344,41.6795],[0.5965,41.8738],[0.5996,41.9134],[0.5625,41.938],[0.6541,42.0144],[0.736,42.2748],[0.7413,42.3811],[0.7293,42.4082],[0.7057,42.4614],[0.752,42.5993],[0.6601,42.691],[0.6717,42.7942],[0.6772,42.8432],[0.8582,42.8257],[0.9282,42.8105],[1.0029,42.7942],[1.0761,42.7783]]],[[[0.6962,40.5731],[0.6199,40.5465],[0.6002,40.5618],[0.6809,40.6011],[0.6962,40.5731]]],[[[1.9929,42.4923],[1.9976,42.4372],[1.9446,42.4544],[1.9537,42.4863],[1.9929,42.4923]]]]}},{"type":"Feature","properties":{"NUTS_ID":"ES52","NAME_LATN":"Comunitat Valenciana"},"geometry":{"type":"MultiPolygon","coordinates":[[[[-0.1763,40.7837],[0.0453,40.6998],[0.0969,40.7134],[0.1708,40.7328],[0.2778,40.6877],[0.2938,40.6264],[0.3956,40.5998],[0.5152,40.5229],[0.3904,40.3413],[0.1976,40.1721],[0.1238,40.0717],[0.0969,40.0561],[0.0493,40.0284],[-0.0161,39.9102],[-0.1885,39.722],[-0.3196,39.4953],[-0.3276,39.4038],[-0.268,39.2676],[-0.1962,39.0555],[-0.0376,38.8864],[0.0969,38.8407],[0.1731,38.8148],[0.2215,38.7393],[0.0969,38.6764],[-0.026,38.6143],[-0.0911,38.5331],[-0.3506,38.4549],[-0.4105,38.3617],[-0.5002,38.3292],[-0.5161,38.2101],[-0.6275,38.1443],[-0.6529,38.008],[-0.7621,37.847],[-0.9029,37.9296],[-1.0245,38.0899],[-1.0297,38.1402],[-0.9743,38.2712],[-0.9945,38.318],[-1.0725,38.3484],[-1.0829,38.3804],[-1.0077,38.5687],[-1.0269,38.6555],[-0.9315,38.6854],[-0.9517,38.7672],[-0.9289,38.7838],[-0.9567,38.9343],[-1.1404,38.9332],[-1.2579,39.0512],[-1.1756,39.2676],[-1.1807,39.3077],[-1.4412,39.3647],[-1.5051,39.418],[-1.4974,39.5584],[-1.3858,39.6765],[-1.2749,39.6909],[-1.2085,39.8341],[-1.1965,39.943],[-1.1424,39.9719],[-0.9865,39.9771],[-0.915,39.9409],[-0.8869,39.8601],[-0.7976,39.8811],[-0.8377,39.93],[-0.8292,39.9749],[-0.7549,40.0378],[-0.64,40.0714],[-0.5433,40.2392],[-0.4142,40.2516],[-0.2904,40.3719],[-0.3355,40.4401],[-0.2836,40.4781],[-0.2947,40.5938],[-0.3611,40.6173],[-0.3607,40.6684],[-0.2549,40.6845],[-0.1763,40.7837]]],[[[-1.2935,40.1885],[-1.2378,40.1216],[-1.1476,40.1098],[-1.091,40.0714],[-1.0959,40.0364],[-1.1652,40.0101],[-1.3678,40.0208],[-1.4488,40.1454],[-1.3496,40.135],[-1.2935,40.1885]]]]}},{"type":"Feature","properties":{"NUTS_ID":"ES53","NAME_LATN":"Illes Balears"},"geometry":{"type":"MultiPolygon","coordinates":[[[[3.1954,39.7576],[3.2531,39.7352],[3.3571,39.7779],[3.4463,39.7431],[3.4557,39.6851],[3.3005,39.4972],[3.2408,39.3765],[3.1954,39.3476],[3.0526,39.2728],[2.953,39.3521],[2.774,39.3843],[2.7347,39.5071],[2.6916,39.5437],[2.5955,39.5398],[2.5053,39.4768],[2.3845,39.5417],[2.3647,39.5789],[2.7539,39.8385],[2.9437,39.9102],[3.0997,39.9205],[3.107,39.8754],[3.1527,39.8561],[3.1424,39.7934],[3.1954,39.7576]]],[[[4.2875,39.8224],[4.2459,39.8161],[4.0337,39.9163],[3.8358,39.9295],[3.8027,40.0208],[3.8466,40.0527],[4.0337,40.0632],[4.1518,40.0613],[4.2609,39.9886],[4.3121,39.8657],[4.2875,39.8224]]],[[[1.5401,39.1148],[1.5562,39.093],[1.5919,39.0953],[1.5874,39.0625],[1.6053,39.0287],[1.5775,38.9907],[1.5326,38.9817],[1.5255,38.9463],[1.4564,38.9034],[1.4226,38.9049],[1.4041,38.8775],[1.4039,38.8356],[1.372,38.8347],[1.3444,38.8709],[1.3028,38.8637],[1.2732,38.8793],[1.2489,38.8585],[1.2155,38.8994],[1.2362,38.9381],[1.2174,38.9583],[1.2894,38.973],[1.2929,39.0284],[1.3631,39.0733],[1.3807,39.0657],[1.4251,39.091],[1.5401,39.1148]]],[[[1.4702,38.7222],[1.4903,38.6798],[1.4511,38.6849],[1.3884,38.6436],[1.3829,38.6884],[1.3833,38.7186],[1.4372,38.7511],[1.4702,38.7222]]],[[[2.9668,39.171],[2.9614,39.1209],[2.9117,39.1236],[2.9191,39.1577],[2.9668,39.171]]],[[[1.5912,38.6814],[1.5702,38.6439],[1.5163,38.6678],[1.5586,38.6957],[1.5912,38.6814]]],[[[3.1887,39.9344],[3.154,39.9161],[3.1146,39.932],[3.1865,39.9716],[3.1887,39.9344]]]]}},{"type":"Feature","properties":{"NUTS_ID":"ES61","NAME_LATN":"Andalucía"},"geometry":{"type":"MultiPolygon","coordinates":[[[[-4.4471,38.4052],[-4.2689,38.3472],[-4.249,38.3969],[-3.9352,38.3689],[-3.7647,38.4198],[-3.6141,38.3997],[-3.565,38.4458],[-3.4539,38.4025],[-3.3417,38.4769],[-3.1697,38.4465],[-3.146,38.4423],[-3.0677,38.4689],[-3.0103,38.4285],[-2.9586,38.4674],[-2.86,38.4651],[-2.7621,38.5328],[-2.5916,38.5033],[-2.5645,38.4179],[-2.488,38.3861],[-2.4819,38.3139],[-2.4423,38.2683],[-2.4523,38.191],[-2.5513,38.0841],[-2.3416,38.026],[-2.2076,37.9166],[-2.0055,37.8591],[-1.9924,37.6641],[-1.8312,37.4601],[-1.63,37.3752],[-1.6731,37.3553],[-1.7106,37.3035],[-1.8,37.2238],[-1.8214,37.1787],[-1.8312,37.1524],[-1.9082,36.9475],[-2.0338,36.8303],[-2.1355,36.7353],[-2.1962,36.7313],[-2.3534,36.8377],[-2.5518,36.8164],[-2.6359,36.714],[-2.7116,36.6838],[-2.8535,36.7033],[-2.9216,36.7439],[-3.1287,36.7509],[-3.1697,36.75],[-3.2886,36.7474],[-3.4369,36.696],[-3.6181,36.7435],[-3.7775,36.7379],[-4.4067,36.714],[-4.5132,36.5993],[-4.6541,36.5041],[-4.9354,36.4961],[-5.1785,36.4084],[-5.2524,36.3113],[-5.3392,36.152],[-5.3515,36.1526],[-5.4166,36.1611],[-5.4559,36.0694],[-5.5993,36.0187],[-5.7955,36.0879],[-5.9148,36.1752],[-6.0355,36.1963],[-6.2248,36.4175],[-6.21,36.4993],[-6.241,36.5689],[-6.3726,36.6313],[-6.4196,36.6904],[-6.4209,36.7434],[-6.3456,36.7988],[-6.3941,36.8134],[-6.4642,36.9217],[-6.5814,37.0131],[-6.9708,37.1787],[-7.0398,37.2053],[-7.133,37.2074],[-7.2872,37.1998],[-7.3509,37.1787],[-7.3686,37.172],[-7.4019,37.1748],[-7.4519,37.4211],[-7.5127,37.5263],[-7.5009,37.6033],[-7.4189,37.7409],[-7.2978,37.8537],[-7.2505,37.9791],[-7.1034,38.0364],[-7.0133,38.0255],[-6.9317,38.2084],[-6.8065,38.1735],[-6.8067,38.1259],[-6.7526,38.0981],[-6.6202,38.0896],[-6.5706,38.0293],[-6.4776,38.0175],[-6.3918,38.0525],[-6.3112,37.9857],[-6.1803,37.9411],[-6.0962,37.9854],[-5.9584,38.002],[-5.9141,38.1116],[-5.8484,38.1636],[-5.7064,38.1861],[-5.6923,38.1603],[-5.7357,38.1122],[-5.7132,38.0871],[-5.5848,38.1318],[-5.5246,38.2222],[-5.5692,38.3364],[-5.5639,38.4302],[-5.1633,38.706],[-5.047,38.7291],[-4.9824,38.6908],[-4.8858,38.681],[-4.8424,38.6105],[-4.6537,38.5379],[-4.4471,38.4052]]]]}},{"type":"Feature","properties":{"NUTS_ID":"ES62","NAME_LATN":"Región de Murcia"},"geometry":{"type":"MultiPolygon","coordinates":[[[[-1.0269,38.6555],[-1.0077,38.5687],[-1.0829,38.3804],[-1.0725,38.3484],[-0.9945,38.318],[-0.9743,38.2712],[-1.0297,38.1402],[-1.0245,38.0899],[-0.9029,37.9296],[-0.7621,37.847],[-0.8519,37.72],[-0.8149,37.6718],[-0.7142,37.6264],[-0.7254,37.6095],[-0.9143,37.5621],[-1.062,37.5796],[-1.1469,37.5447],[-1.2192,37.5732],[-1.3283,37.5581],[-1.4963,37.4327],[-1.63,37.3752],[-1.8312,37.4601],[-1.9924,37.6641],[-2.0055,37.8591],[-2.2076,37.9166],[-2.3416,38.026],[-2.2089,38.2008],[-2.0525,38.2965],[-2.0338,38.2964],[-1.9236,38.2959],[-1.8312,38.3368],[-1.7401,38.3772],[-1.6731,38.3211],[-1.5881,38.3145],[-1.4882,38.3749],[-1.4918,38.5444],[-1.3986,38.6896],[-1.3317,38.686],[-1.1724,38.7505],[-1.0269,38.6555]]]]}},{"type":"Feature","properties":{"NUTS_ID":"ES63","NAME_LATN":"Ciudad de Ceuta"},"geometry":{"type":"MultiPolygon","coordinates":[[[[-5.3335,35.8855],[-5.3434,35.8709],[-5.3819,35.913],[-5.3605,35.9135],[-5.3395,35.8986],[-5.3335,35.8855]]]]}},{"type":"Feature","properties":{"NUTS_ID":"ES64","NAME_LATN":"Ciudad de Melilla"},"geometry":{"type":"MultiPolygon","coordinates":[[[[-2.9281,35.2731],[-2.9506,35.2699],[-2.9701,35.2894],[-2.9525,35.3198],[-2.9281,35.2731]]]]}},{"type":"Feature","properties":{"NUTS_ID":"ES70","NAME_LATN":"Canarias"},"geometry":{"type":"MultiPolygon","coordinates":[[[[-16.1584,28.5878],[-16.1209,28.5549],[-16.1271,28.5326],[-16.2354,28.4857],[-16.2501,28.4557],[-16.3601,28.3785],[-16.3627,28.3047],[-16.4242,28.2054],[-16.4269,28.1518],[-16.4627,28.1204],[-16.5407,28.0316],[-16.5975,28.0281],[-16.6444,28.0043],[-16.707,28.0109],[-16.7122,28.0468],[-16.736,28.0548],[-16.7382,28.0878],[-16.7725,28.1141],[-16.8354,28.2076],[-16.8381,28.2573],[-16.8814,28.3132],[-16.9233,28.3518],[-16.8295,28.3923],[-16.8097,28.3774],[-16.751,28.3716],[-16.6736,28.4002],[-16.6029,28.3942],[-16.554,28.4183],[-16.5232,28.4175],[-16.4307,28.4872],[-16.4206,28.5173],[-16.3841,28.5458],[-16.3356,28.557],[-16.3203,28.5775],[-16.2245,28.5655],[-16.1584,28.5878]]],[[[-13.9145,28.2575],[-13.9504,28.2276],[-13.9851,28.228],[-14.0113,28.2079],[-14.1208,28.1908],[-14.2218,28.1624],[-14.2749,28.0969],[-14.3314,28.0443],[-14.492,28.0765],[-14.4988,28.1002],[-14.4266,28.1026],[-14.3715,28.1173],[-14.3116,28.1466],[-14.2502,28.1914],[-14.2159,28.2277],[-14.2012,28.331],[-14.1642,28.3685],[-14.146,28.4388],[-14.1011,28.4757],[-14.0335,28.5964],[-14.0383,28.6149],[-14.0093,28.6759],[-14.0156,28.716],[-13.9775,28.7344],[-13.8875,28.7577],[-13.8425,28.7271],[-13.8224,28.5921],[-13.8429,28.5049],[-13.8665,28.4811],[-13.8499,28.4207],[-13.9145,28.2575]]],[[[-15.4117,28.134],[-15.4152,28.0466],[-15.3696,27.9922],[-15.3831,27.9728],[-15.3745,27.9368],[-15.3938,27.8897],[-15.3865,27.8583],[-15.4148,27.8455],[-15.4421,27.8004],[-15.4905,27.7927],[-15.6002,27.736],[-15.6569,27.7569],[-15.6728,27.7503],[-15.7876,27.8361],[-15.8329,27.9122],[-15.8335,27.9715],[-15.8208,28.0136],[-15.7902,28.0194],[-15.7089,28.0864],[-15.6968,28.1505],[-15.6364,28.1703],[-15.613,28.1474],[-15.5254,28.1536],[-15.4679,28.1258],[-15.4358,28.1375],[-15.457,28.1617],[-15.4219,28.1932],[-15.3932,28.1851],[-15.4117,28.134]]],[[[-13.4641,29.1277],[-13.4642,29.0316],[-13.5322,28.9683],[-13.7212,28.9091],[-13.7835,28.85],[-13.8682,28.8642],[-13.8086,29.0353],[-13.6042,29.1352],[-13.557,29.1165],[-13.5373,29.1277],[-13.5033,29.2824],[-13.4255,29.194],[-13.4641,29.1277]]],[[[-17.9205,28.8567],[-17.8572,28.8333],[-17.778,28.8388],[-17.7578,28.7882],[-17.7245,28.7411],[-17.7702,28.676],[-17.7503,28.6212],[-17.7594,28.5738],[-17.7872,28.5422],[-17.8338,28.4576],[-17.8666,28.4709],[-17.8801,28.5372],[-17.9635,28.6676],[-18.0067,28.7753],[-17.9663,28.8265],[-17.9205,28.8567]]],[[[-17.2009,28.0235],[-17.2455,28.0199],[-17.3199,28.0595],[-17.3491,28.0998],[-17.3471,28.1474],[-17.3177,28.2048],[-17.2609,28.2178],[-17.2428,28.2024],[-17.1956,28.1991],[-17.1837,28.1814],[-17.1184,28.1516],[-17.0989,28.0948],[-17.2009,28.0235]]],[[[-17.8853,27.8115],[-17.9344,27.7287],[-17.9576,27.7205],[-17.972,27.6492],[-17.9896,27.6396],[-18.0505,27.6933],[-18.1444,27.7046],[-18.1584,27.7249],[-18.1495,27.7596],[-18.1283,27.7709],[-18.0681,27.7536],[-17.9963,27.7921],[-17.9922,27.8209],[-17.9238,27.8481],[-17.8853,27.8115]]],[[[-13.473,29.4036],[-13.503,29.3745],[-13.5478,29.3955],[-13.5004,29.4287],[-13.473,29.4036]]]]}},{"type":"Feature","properties":{"NUTS_ID":"ES11","NAME_LATN":"Galicia"},"geometry":{"type":"MultiPolygon","coordinates":[[[[-7.8824,43.7409],[-7.8603,43.6905],[-7.6997,43.7351],[-7.6327,43.7376],[-7.5998,43.6844],[-7.5468,43.7245],[-7.4858,43.7223],[-7.3616,43.6683],[-7.2775,43.5949],[-7.2571,43.5772],[-7.0318,43.5445],[-7.0673,43.4705],[-7.1655,43.4227],[-7.1717,43.3963],[-6.9538,43.1454],[-6.8422,43.1601],[-6.8419,43.1321],[-6.9743,43.0237],[-6.8679,42.976],[-6.8242,42.915],[-6.8529,42.8479],[-6.8758,42.7942],[-7.0232,42.6946],[-7.0768,42.5081],[-6.9301,42.5161],[-6.8375,42.488],[-6.8228,42.4235],[-6.8242,42.3928],[-6.7366,42.3417],[-6.7843,42.2536],[-6.9293,42.1761],[-7.0198,42.0751],[-6.9698,42.0366],[-6.9858,41.9714],[-7.0474,41.9513],[-7.1614,41.9808],[-7.2005,41.8797],[-7.4182,41.8181],[-7.4692,41.8628],[-7.5992,41.8349],[-7.6157,41.875],[-7.7071,41.9029],[-7.8795,41.8604],[-7.8984,41.9194],[-8.0519,41.8206],[-8.1651,41.8183],[-8.2074,41.9195],[-8.089,42.0392],[-8.1131,42.073],[-8.1795,42.0789],[-8.199,42.1544],[-8.354,42.084],[-8.6256,42.0454],[-8.8632,41.8721],[-8.8746,42.0876],[-8.7377,42.2465],[-8.8243,42.29],[-8.7537,42.392],[-8.8363,42.4097],[-8.8878,42.4593],[-8.8396,42.4958],[-8.7267,42.6883],[-9.0343,42.5403],[-9.0615,42.6129],[-8.9539,42.7746],[-9.0982,42.7637],[-9.1097,42.7942],[-9.1299,42.8479],[-9.15,42.9012],[-9.2831,42.9457],[-9.2646,43.0481],[-9.1893,43.1069],[-9.1831,43.1321],[-9.1729,43.1727],[-8.9679,43.2261],[-8.9722,43.2785],[-8.8609,43.3209],[-8.6801,43.2981],[-8.4436,43.3672],[-8.3683,43.3538],[-8.3111,43.3909],[-8.2252,43.3484],[-8.226,43.4075],[-8.3048,43.4705],[-8.2738,43.5502],[-8.2046,43.5949],[-8.0281,43.709],[-7.9171,43.7506],[-7.8824,43.7409]]]]}},{"type":"Feature","properties":{"NUTS_ID":"ES12","NAME_LATN":"Principado de Asturias"},"geometry":{"type":"MultiPolygon","coordinates":[[[[-4.5123,43.3932],[-4.5291,43.2891],[-4.6942,43.2638],[-4.7421,43.1947],[-4.841,43.1807],[-4.9141,43.2317],[-5.0696,43.1749],[-5.0962,43.1321],[-5.1103,43.1094],[-5.3219,43.0795],[-5.3681,43.0872],[-5.5215,43.0205],[-5.7005,43.0502],[-5.7715,42.9761],[-5.8192,42.9672],[-5.9867,43.059],[-6.0739,43.0679],[-6.117,43.0283],[-6.1976,43.0446],[-6.2398,43.0188],[-6.3666,43.0509],[-6.4564,42.937],[-6.6919,42.9012],[-6.7603,42.8908],[-6.7878,42.9012],[-6.8242,42.915],[-6.8679,42.976],[-6.9743,43.0237],[-6.8419,43.1321],[-6.8422,43.1601],[-6.9538,43.1454],[-7.1717,43.3963],[-7.1655,43.4227],[-7.0673,43.4705],[-7.0318,43.5445],[-6.9266,43.5721],[-6.3695,43.5521],[-6.2414,43.5855],[-6.1131,43.5583],[-5.9529,43.5854],[-5.9366,43.5949],[-5.845,43.6483],[-5.75,43.5949],[-5.6681,43.5489],[-5.3219,43.5348],[-5.2099,43.4781],[-5.1476,43.4705],[-4.5123,43.3932]]]]}},{"type":"Feature","properties":{"NUTS_ID":"ES13","NAME_LATN":"Cantabria"},"geometry":{"type":"MultiPolygon","coordinates":[[[[-3.5782,43.502],[-3.4078,43.4206],[-3.259,43.398],[-3.1533,43.3532],[-3.1697,43.3212],[-3.1841,43.2932],[-3.3226,43.2956],[-3.4352,43.2364],[-3.4177,43.1334],[-3.6517,43.1707],[-3.6985,43.1321],[-3.745,43.0938],[-3.8325,43.0713],[-3.9472,42.9975],[-3.9815,42.9343],[-3.9408,42.9125],[-3.8549,42.9397],[-3.8468,42.9185],[-3.8687,42.9012],[-3.8513,42.8479],[-3.8387,42.8091],[-3.8984,42.7942],[-3.9997,42.7689],[-3.9971,42.7942],[-3.9968,42.7973],[-4.0014,42.825],[-4.0074,42.8298],[-4.0177,42.8219],[-4.0179,42.8087],[-4.0304,42.8004],[-4.0311,42.7942],[-4.0459,42.7666],[-4.0814,42.7614],[-4.0841,42.7942],[-4.0874,42.8341],[-4.1515,42.8023],[-4.1527,42.8479],[-4.213,42.8748],[-4.2677,42.9557],[-4.4156,43.0327],[-4.737,43.0209],[-4.7547,43.0628],[-4.8385,43.1141],[-4.8392,43.1321],[-4.841,43.1807],[-4.7421,43.1947],[-4.6942,43.2638],[-4.5291,43.2891],[-4.5123,43.3932],[-4.1904,43.4036],[-3.8356,43.4774],[-3.7812,43.4363],[-3.5782,43.502]]],[[[-3.2488,43.26],[-3.2663,43.2056],[-3.297,43.2067],[-3.3051,43.2525],[-3.2488,43.26]]]]}},{"type":"Feature","properties":{"NUTS_ID":"ES21","NAME_LATN":"País Vasco"},"geometry":{"type":"MultiPolygon","coordinates":[[[[-2.761,43.4476],[-2.4128,43.3211],[-2.1657,43.2925],[-2.0338,43.3253],[-1.8312,43.3757],[-1.786,43.3505],[-1.7289,43.2961],[-1.8312,43.2416],[-1.9021,43.2039],[-1.9153,43.1321],[-2.0127,43.0629],[-2.0742,42.978],[-2.2508,42.8957],[-2.2449,42.8479],[-2.2731,42.7942],[-2.3071,42.7293],[-2.3112,42.6626],[-2.4223,42.6484],[-2.4676,42.6079],[-2.4585,42.5825],[-2.4085,42.5774],[-2.4207,42.4893],[-2.65,42.4925],[-2.6868,42.5255],[-2.6983,42.5985],[-2.7557,42.6144],[-2.8213,42.565],[-2.8581,42.6382],[-2.9445,42.7104],[-3.1265,42.7703],[-3.1293,42.7942],[-3.1357,42.8479],[-3.1697,42.8528],[-3.2352,42.8624],[-3.2308,42.9201],[-3.201,42.9374],[-3.1697,42.9331],[-3.0303,42.9135],[-3.0039,42.9398],[-3.037,42.9822],[-3.089,43.0016],[-3.1486,43.0335],[-3.1637,43.1321],[-3.1414,43.1615],[-3.1697,43.1684],[-3.264,43.1915],[-3.4177,43.1334],[-3.4352,43.2364],[-3.3226,43.2956],[-3.1841,43.2932],[-3.1697,43.3212],[-3.1533,43.3532],[-3.0274,43.3325],[-3.0246,43.376],[-2.9435,43.4287],[-2.761,43.4476]],[[-2.7673,42.6663],[-2.7172,42.6629],[-2.6583,42.6721],[-2.6383,42.6501],[-2.5848,42.6515],[-2.5503,42.6388],[-2.5188,42.6477],[-2.5242,42.6842],[-2.5791,42.6706],[-2.6071,42.696],[-2.5642,42.7394],[-2.6029,42.7702],[-2.6435,42.765],[-2.7316,42.7934],[-2.7695,42.7942],[-2.835,42.7942],[-2.8551,42.742],[-2.8244,42.7089],[-2.7838,42.699],[-2.7673,42.6663]],[[-3.297,43.2067],[-3.2663,43.2056],[-3.2488,43.26],[-3.3051,43.2525],[-3.297,43.2067]]]]}},{"type":"Feature","properties":{"NUTS_ID":"ES22","NAME_LATN":"Comunidad Foral de Navarra"},"geometry":{"type":"MultiPolygon","coordinates":[[[[-1.6599,43.3076],[-1.5936,43.2653],[-1.5132,43.286],[-1.4022,43.2518],[-1.392,43.1951],[-1.4266,43.1321],[-1.4529,43.0841],[-1.4197,43.0469],[-1.3644,43.0424],[-1.3073,43.0942],[-1.2255,43.0408],[-0.9492,42.9622],[-0.7711,42.9579],[-0.7245,42.9202],[-0.808,42.8949],[-0.8696,42.7942],[-0.9011,42.7427],[-1.1529,42.6255],[-1.2732,42.5204],[-1.3241,42.4082],[-1.4035,42.2331],[-1.3891,42.1348],[-1.3209,42.048],[-1.4068,41.9322],[-1.5327,41.9155],[-1.8472,42.008],[-1.8945,42.0356],[-1.8871,42.0871],[-1.8312,42.1377],[-1.7039,42.1678],[-1.7237,42.2017],[-1.8312,42.2436],[-1.9889,42.3581],[-2.0338,42.355],[-2.0664,42.3528],[-2.1253,42.4082],[-2.4207,42.4893],[-2.4085,42.5774],[-2.4585,42.5825],[-2.4676,42.6079],[-2.4223,42.6484],[-2.3112,42.6626],[-2.3071,42.7293],[-2.2731,42.7942],[-2.2449,42.8479],[-2.2508,42.8957],[-2.0742,42.978],[-2.0127,43.0629],[-1.9153,43.1321],[-1.9021,43.2039],[-1.8312,43.2416],[-1.7289,43.2961],[-1.6599,43.3076]]],[[[-1.068,42.4671],[-1.0557,42.4327],[-1.1325,42.446],[-1.1029,42.4852],[-1.068,42.4671]]],[[[-1.1457,42.4005],[-1.1859,42.3935],[-1.2038,42.4311],[-1.1361,42.4368],[-1.1457,42.4005]]]]}},{"type":"Feature","properties":{"NUTS_ID":"ES23","NAME_LATN":"La Rioja"},"geometry":{"type":"MultiPolygon","coordinates":[[[[-2.4207,42.4893],[-2.1253,42.4082],[-2.0664,42.3528],[-2.0338,42.355],[-1.9889,42.3581],[-1.8312,42.2436],[-1.7237,42.2017],[-1.7039,42.1678],[-1.8312,42.1377],[-1.8871,42.0871],[-1.8945,42.0356],[-1.8472,42.008],[-1.8565,41.9664],[-1.9648,41.9238],[-2.0338,41.9427],[-2.0951,41.9596],[-2.145,42.0956],[-2.2605,42.0966],[-2.3244,42.1422],[-2.5062,42.107],[-2.5878,42.0024],[-2.7422,42.0163],[-2.7168,42.0905],[-2.7508,42.1218],[-2.82,42.038],[-2.9136,42.0228],[-2.9465,42.0757],[-3.039,42.1035],[-3.1122,42.1947],[-3.1035,42.3177],[-3.0736,42.3679],[-3.1067,42.4082],[-3.0833,42.4603],[-3.0982,42.5514],[-3.0549,42.6188],[-2.8581,42.6382],[-2.8213,42.565],[-2.7557,42.6144],[-2.6983,42.5985],[-2.6868,42.5255],[-2.65,42.4925],[-2.4207,42.4893]]]]}},{"type":"Feature","properties":{"NUTS_ID":"ES24","NAME_LATN":"Aragón"},"geometry":{"type":"MultiPolygon","coordinates":[[[[-0.7245,42.9202],[-0.5542,42.7966],[-0.404,42.8058],[-0.3133,42.8494],[-0.2157,42.7942],[-0.0298,42.6893],[0.0969,42.7157],[0.1781,42.7327],[0.2948,42.6835],[0.3604,42.7169],[0.4778,42.7],[0.6601,42.691],[0.752,42.5993],[0.7057,42.4614],[0.7293,42.4082],[0.7413,42.3811],[0.736,42.2748],[0.6541,42.0144],[0.5625,41.938],[0.5996,41.9134],[0.5965,41.8738],[0.3344,41.6795],[0.358,41.6071],[0.4218,41.5952],[0.44,41.5523],[0.3555,41.4806],[0.3359,41.4074],[0.3857,41.2788],[0.2967,41.1706],[0.2228,41.1274],[0.2204,41.0714],[0.2833,40.9792],[0.2538,40.8978],[0.2674,40.8236],[0.1708,40.7328],[0.0969,40.7134],[0.0453,40.6998],[-0.1763,40.7837],[-0.2549,40.6845],[-0.3607,40.6684],[-0.3611,40.6173],[-0.2947,40.5938],[-0.2836,40.4781],[-0.3355,40.4401],[-0.2904,40.3719],[-0.4142,40.2516],[-0.5433,40.2392],[-0.64,40.0714],[-0.7549,40.0378],[-0.8292,39.9749],[-0.8377,39.93],[-0.7976,39.8811],[-0.8869,39.8601],[-0.915,39.9409],[-0.9865,39.9771],[-1.1424,39.9719],[-1.1652,40.0101],[-1.0959,40.0364],[-1.091,40.0714],[-1.1476,40.1098],[-1.2378,40.1216],[-1.2935,40.1885],[-1.3496,40.135],[-1.4488,40.1454],[-1.4495,40.1894],[-1.552,40.2024],[-1.6731,40.2986],[-1.7059,40.2982],[-1.8063,40.3982],[-1.7021,40.4885],[-1.6731,40.5907],[-1.5774,40.5761],[-1.5417,40.6633],[-1.5453,40.8025],[-1.6119,40.8789],[-1.6174,40.9437],[-1.6731,40.9836],[-1.8312,41.0833],[-1.9601,41.1645],[-2.0338,41.1503],[-2.0517,41.1469],[-2.1452,41.1966],[-2.1662,41.329],[-2.1011,41.4367],[-2.0338,41.3968],[-1.9665,41.4236],[-1.9747,41.5929],[-1.8312,41.6831],[-1.7968,41.7047],[-1.8312,41.8555],[-1.8565,41.9664],[-1.8472,42.008],[-1.5327,41.9155],[-1.4068,41.9322],[-1.3209,42.048],[-1.3891,42.1348],[-1.4035,42.2331],[-1.3241,42.4082],[-1.2732,42.5204],[-1.1529,42.6255],[-0.9011,42.7427],[-0.8696,42.7942],[-0.808,42.8949],[-0.7245,42.9202]],[[-1.1325,42.446],[-1.0557,42.4327],[-1.068,42.4671],[-1.1029,42.4852],[-1.1325,42.446]],[[-1.1457,42.4005],[-1.1361,42.4368],[-1.2038,42.4311],[-1.1859,42.3935],[-1.1457,42.4005]]]]}},{"type":"Feature","properties":{"NUTS_ID":"ES30","NAME_LATN":"Comunidad de Madrid"},"geometry":{"type":"MultiPolygon","coordinates":[[[[-3.1381,40.4035],[-3.1697,40.3066],[-3.1873,40.253],[-3.1697,40.2573],[-3.1072,40.2725],[-3.0677,40.1579],[-3.0683,40.0929],[-3.1614,40.0649],[-3.3452,40.0699],[-3.5084,40.0348],[-3.8234,39.9],[-3.8493,39.9313],[-3.6532,40.0389],[-3.6319,40.1081],[-4.1864,40.2795],[-4.3097,40.2357],[-4.3763,40.2989],[-4.4619,40.236],[-4.5791,40.2172],[-4.5382,40.3306],[-4.4618,40.3248],[-4.4246,40.3986],[-4.3388,40.4221],[-4.315,40.5469],[-4.2705,40.5978],[-4.1734,40.6232],[-4.1603,40.6899],[-4.074,40.7839],[-3.9791,40.7949],[-3.8993,40.9583],[-3.785,41.0038],[-3.6139,41.1459],[-3.5396,41.165],[-3.4387,41.08],[-3.4034,40.9994],[-3.4785,40.8245],[-3.456,40.6911],[-3.3775,40.6695],[-3.2817,40.5504],[-3.2074,40.5129],[-3.1929,40.4505],[-3.1697,40.4307],[-3.1381,40.4035]]],[[[-4.2692,40.6553],[-4.3193,40.6476],[-4.3233,40.6574],[-4.3147,40.6672],[-4.2882,40.6806],[-4.2742,40.6771],[-4.2692,40.6553]]]]}},{"type":"Feature","properties":{"NUTS_ID":"ES41","NAME_LATN":"Castilla y León"},"geometry":{"type":"MultiPolygon","coordinates":[[[[-4.8385,43.1141],[-4.7547,43.0628],[-4.737,43.0209],[-4.4156,43.0327],[-4.2677,42.9557],[-4.213,42.8748],[-4.1527,42.8479],[-4.1515,42.8023],[-4.0874,42.8341],[-4.0841,42.7942],[-4.0814,42.7614],[-4.0459,42.7666],[-4.0311,42.7942],[-4.0304,42.8004],[-4.0179,42.8087],[-4.0177,42.8219],[-4.0074,42.8298],[-4.0014,42.825],[-3.9968,42.7973],[-3.9971,42.7942],[-3.9997,42.7689],[-3.8984,42.7942],[-3.8387,42.8091],[-3.8513,42.8479],[-3.8687,42.9012],[-3.8468,42.9185],[-3.8549,42.9397],[-3.9408,42.9125],[-3.9815,42.9343],[-3.9472,42.9975],[-3.8325,43.0713],[-3.745,43.0938],[-3.6985,43.1321],[-3.6517,43.1707],[-3.4177,43.1334],[-3.264,43.1915],[-3.1697,43.1684],[-3.1414,43.1615],[-3.1637,43.1321],[-3.1486,43.0335],[-3.089,43.0016],[-3.037,42.9822],[-3.0039,42.9398],[-3.0303,42.9135],[-3.1697,42.9331],[-3.201,42.9374],[-3.2308,42.9201],[-3.2352,42.8624],[-3.1697,42.8528],[-3.1357,42.8479],[-3.1293,42.7942],[-3.1265,42.7703],[-2.9445,42.7104],[-2.8581,42.6382],[-3.0549,42.6188],[-3.0982,42.5514],[-3.0833,42.4603],[-3.1067,42.4082],[-3.0736,42.3679],[-3.1035,42.3177],[-3.1122,42.1947],[-3.039,42.1035],[-2.9465,42.0757],[-2.9136,42.0228],[-2.82,42.038],[-2.7508,42.1218],[-2.7168,42.0905],[-2.7422,42.0163],[-2.5878,42.0024],[-2.5062,42.107],[-2.3244,42.1422],[-2.2605,42.0966],[-2.145,42.0956],[-2.0951,41.9596],[-2.0338,41.9427],[-1.9648,41.9238],[-1.8565,41.9664],[-1.8312,41.8555],[-1.7968,41.7047],[-1.8312,41.6831],[-1.9747,41.5929],[-1.9665,41.4236],[-2.0338,41.3968],[-2.1011,41.4367],[-2.1662,41.329],[-2.1452,41.1966],[-2.0517,41.1469],[-2.0685,41.0843],[-2.1311,41.1095],[-2.294,41.0624],[-2.4248,41.0636],[-2.5218,41.1395],[-2.5773,41.1496],[-2.6001,41.2177],[-2.7277,41.2711],[-2.8408,41.2686],[-2.8966,41.3221],[-3.061,41.2779],[-3.1697,41.2975],[-3.2074,41.3042],[-3.2657,41.2617],[-3.3861,41.2538],[-3.5396,41.165],[-3.6139,41.1459],[-3.785,41.0038],[-3.8993,40.9583],[-3.9791,40.7949],[-4.074,40.7839],[-4.1603,40.6899],[-4.1734,40.6232],[-4.2705,40.5978],[-4.315,40.5469],[-4.3388,40.4221],[-4.4246,40.3986],[-4.4618,40.3248],[-4.5382,40.3306],[-4.5791,40.2172],[-4.6582,40.2075],[-4.7052,40.2736],[-4.7938,40.2676],[-4.9717,40.123],[-5.037,40.1534],[-5.169,40.0885],[-5.336,40.1159],[-5.3689,40.2547],[-5.5343,40.1988],[-5.7376,40.2942],[-5.7842,40.292],[-5.811,40.3459],[-5.925,40.2883],[-5.9797,40.2983],[-6.2216,40.4825],[-6.5351,40.3407],[-6.5929,40.2726],[-6.7717,40.2422],[-6.8651,40.2707],[-6.7891,40.3515],[-6.8429,40.4428],[-6.8012,40.5195],[-6.8377,40.5801],[-6.8007,40.6618],[-6.8259,40.7496],[-6.8082,40.8596],[-6.9299,41.0295],[-6.8095,41.0475],[-6.6898,41.2052],[-6.4797,41.2944],[-6.3252,41.3941],[-6.2039,41.5858],[-6.3241,41.6681],[-6.5339,41.6786],[-6.5605,41.7464],[-6.5236,41.8597],[-6.5605,41.8879],[-6.5767,41.9548],[-6.7165,41.938],[-6.796,41.9869],[-6.8345,41.9487],[-6.9038,41.9417],[-6.9858,41.9714],[-6.9698,42.0366],[-7.0198,42.0751],[-6.9293,42.1761],[-6.7843,42.2536],[-6.7366,42.3417],[-6.8242,42.3928],[-6.8228,42.4235],[-6.8375,42.488],[-6.9301,42.5161],[-7.0768,42.5081],[-7.0232,42.6946],[-6.8758,42.7942],[-6.8529,42.8479],[-6.8242,42.915],[-6.7878,42.9012],[-6.7603,42.8908],[-6.6919,42.9012],[-6.4564,42.937],[-6.3666,43.0509],[-6.2398,43.0188],[-6.1976,43.0446],[-6.117,43.0283],[-6.0739,43.0679],[-5.9867,43.059],[-5.8192,42.9672],[-5.7715,42.9761],[-5.7005,43.0502],[-5.5215,43.0205],[-5.3681,43.0872],[-5.3219,43.0795],[-5.1103,43.1094],[-5.0962,43.1321],[-5.0696,43.1749],[-4.9141,43.2317],[-4.841,43.1807],[-4.8392,43.1321],[-4.8385,43.1141]],[[-4.3233,40.6574],[-4.3193,40.6476],[-4.2692,40.6553],[-4.2742,40.6771],[-4.2882,40.6806],[-4.3147,40.6672],[-4.3233,40.6574]]],[[[-2.7316,42.7934],[-2.6435,42.765],[-2.6029,42.7702],[-2.5642,42.7394],[-2.6071,42.696],[-2.5791,42.6706],[-2.5242,42.6842],[-2.5188,42.6477],[-2.5503,42.6388],[-2.5848,42.6515],[-2.6383,42.6501],[-2.6583,42.6721],[-2.7172,42.6629],[-2.7673,42.6663],[-2.7838,42.699],[-2.8244,42.7089],[-2.8551,42.742],[-2.835,42.7942],[-2.7695,42.7942],[-2.7316,42.7934]]]]}},{"type":"Feature","properties":{"NUTS_ID":"ES42","NAME_LATN":"Castilla-La Mancha"},"geometry":{"type":"MultiPolygon","coordinates":[[[[-2.8966,41.3221],[-2.8408,41.2686],[-2.7277,41.2711],[-2.6001,41.2177],[-2.5773,41.1496],[-2.5218,41.1395],[-2.4248,41.0636],[-2.294,41.0624],[-2.1311,41.1095],[-2.0685,41.0843],[-2.0517,41.1469],[-2.0338,41.1503],[-1.9601,41.1645],[-1.8312,41.0833],[-1.6731,40.9836],[-1.6174,40.9437],[-1.6119,40.8789],[-1.5453,40.8025],[-1.5417,40.6633],[-1.5774,40.5761],[-1.6731,40.5907],[-1.7021,40.4885],[-1.8063,40.3982],[-1.7059,40.2982],[-1.6731,40.2986],[-1.552,40.2024],[-1.4495,40.1894],[-1.4488,40.1454],[-1.3678,40.0208],[-1.1652,40.0101],[-1.1424,39.9719],[-1.1965,39.943],[-1.2085,39.8341],[-1.2749,39.6909],[-1.3858,39.6765],[-1.4974,39.5584],[-1.5051,39.418],[-1.4412,39.3647],[-1.1807,39.3077],[-1.1756,39.2676],[-1.2579,39.0512],[-1.1404,38.9332],[-0.9567,38.9343],[-0.9289,38.7838],[-0.9517,38.7672],[-0.9315,38.6854],[-1.0269,38.6555],[-1.1724,38.7505],[-1.3317,38.686],[-1.3986,38.6896],[-1.4918,38.5444],[-1.4882,38.3749],[-1.5881,38.3145],[-1.6731,38.3211],[-1.7401,38.3772],[-1.8312,38.3368],[-1.9236,38.2959],[-2.0338,38.2964],[-2.0525,38.2965],[-2.2089,38.2008],[-2.3416,38.026],[-2.5513,38.0841],[-2.4523,38.191],[-2.4423,38.2683],[-2.4819,38.3139],[-2.488,38.3861],[-2.5645,38.4179],[-2.5916,38.5033],[-2.7621,38.5328],[-2.86,38.4651],[-2.9586,38.4674],[-3.0103,38.4285],[-3.0677,38.4689],[-3.146,38.4423],[-3.1697,38.4465],[-3.3417,38.4769],[-3.4539,38.4025],[-3.565,38.4458],[-3.6141,38.3997],[-3.7647,38.4198],[-3.9352,38.3689],[-4.249,38.3969],[-4.2689,38.3472],[-4.4471,38.4052],[-4.6537,38.5379],[-4.8424,38.6105],[-4.8858,38.681],[-4.9824,38.6908],[-5.047,38.7291],[-4.9834,38.7541],[-4.9245,38.8739],[-4.8411,38.9077],[-4.8468,38.9368],[-4.9284,38.9732],[-4.9541,39.0489],[-4.8446,39.0485],[-4.8654,39.1161],[-4.8068,39.1919],[-4.6753,39.1785],[-4.7512,39.3066],[-4.6834,39.3987],[-4.6877,39.4503],[-4.7554,39.4158],[-4.8679,39.3746],[-4.9408,39.3952],[-4.9526,39.395],[-5.1917,39.5897],[-5.1447,39.7011],[-5.1693,39.7892],[-5.295,39.7617],[-5.3014,39.8694],[-5.3974,39.8873],[-5.3697,40.082],[-5.336,40.1159],[-5.169,40.0885],[-5.037,40.1534],[-4.9717,40.123],[-4.7938,40.2676],[-4.7052,40.2736],[-4.6582,40.2075],[-4.5791,40.2172],[-4.4619,40.236],[-4.3763,40.2989],[-4.3097,40.2357],[-4.1864,40.2795],[-3.6319,40.1081],[-3.6532,40.0389],[-3.8493,39.9313],[-3.8234,39.9],[-3.5084,40.0348],[-3.3452,40.0699],[-3.1614,40.0649],[-3.0683,40.0929],[-3.0677,40.1579],[-3.1072,40.2725],[-3.1697,40.2573],[-3.1873,40.253],[-3.1697,40.3066],[-3.1381,40.4035],[-3.1697,40.4307],[-3.1929,40.4505],[-3.2074,40.5129],[-3.2817,40.5504],[-3.3775,40.6695],[-3.456,40.6911],[-3.4785,40.8245],[-3.4034,40.9994],[-3.4387,41.08],[-3.5396,41.165],[-3.3861,41.2538],[-3.2657,41.2617],[-3.2074,41.3042],[-3.1697,41.2975],[-3.061,41.2779],[-2.8966,41.3221]]]]}}]}